OBJECT_NAME,OBJECT_ID,EPOCH,MEAN_MOTION,ECCENTRICITY,INCLINATION,RA_OF_ASC_NODE,ARG_OF_PERICENTER,MEAN_ANOMALY,EPHEMERIS_TYPE,CLASSIFICATION_TYPE,NORAD_CAT_ID,ELEMENT_SET_NO,REV_AT_EPOCH,BSTAR,MEAN_MOTION_DOT,MEAN_MOTION_DDOT
ONEWEB-0012,2019-010A,2026-06-06T14:43:35.383872,13.16594229,.00021386,87.9105,230.8848,87.0658,273.0717,0,U,44057,999,35017,-.20950835E-3,-.67E-6,0
ONEWEB-0010,2019-010B,2026-06-06T22:37:48.421920,13.16593977,.00017519,87.9099,230.8150,104.8794,255.2531,0,U,44058,999,35026,.23450181E-4,.22E-6,0
ONEWEB-0008,2019-010C,2026-06-06T15:56:33.004896,13.16595825,.00022466,87.9103,230.8658,102.3422,257.7961,0,U,44059,999,35034,.89657749E-4,.47E-6,0
ONEWEB-0007,2019-010D,2026-06-06T23:53:09.378816,13.15547693,.0001686,87.9006,261.2513,94.3210,265.8113,0,U,44060,999,35003,-.21539513E-3,-.68E-6,0
ONEWEB-0006,2019-010E,2026-06-06T23:58:50.801376,13.15548065,.00018494,87.9018,261.2140,101.7620,258.3718,0,U,44061,999,35008,-.28114278E-3,-.93E-6,0
ONEWEB-0011,2019-010F,2026-06-07T01:02:44.352960,13.15550332,.00019446,87.9013,261.2148,106.8107,253.3237,0,U,44062,999,35008,.42512027E-3,.173E-5,0
ONEWEB-0013,2020-008A,2026-06-07T00:10:41.724768,13.09457466,.00026486,87.8526,54.8786,62.7812,297.3585,0,U,45131,999,30473,.23191913E-2,.812E-5,0
ONEWEB-0017,2020-008B,2026-06-06T14:45:43.140960,13.10371924,.00015482,87.8848,38.3728,83.1381,276.9923,0,U,45132,999,30656,-.15937075E-2,-.544E-5,0
ONEWEB-0020,2020-008C,2026-06-06T23:12:30.593664,13.10371058,.00017544,87.8840,38.3029,83.7147,276.4180,0,U,45133,999,30700,.15019114E-2,.537E-5,0
ONEWEB-0021,2020-008D,2026-06-06T16:14:10.959936,13.10369670,.00017702,87.8840,38.3767,79.3623,280.7704,0,U,45134,999,30727,-.11327264E-3,-.27E-6,0
ONEWEB-0023,2020-008F,2026-06-06T16:29:42.505728,13.10370021,.00018837,87.8843,38.3552,78.1928,281.9411,0,U,45136,999,30670,-.17556582E-2,-.6E-5,0
ONEWEB-0024,2020-008G,2026-06-06T23:10:18.876000,13.10371334,.00018184,87.8855,38.2927,81.4584,278.6749,0,U,45137,999,30690,.20325322E-2,.722E-5,0
ONEWEB-0025,2020-008H,2026-06-06T23:09:55.061568,13.10371629,.0002104,87.8854,38.2820,94.6570,265.4798,0,U,45138,999,30723,.1868409E-2,.665E-5,0
ONEWEB-0026,2020-008J,2026-06-06T20:36:14.031072,13.11416397,.00017254,87.8896,23.1243,88.5133,271.6193,0,U,45139,999,30975,.89656698E-3,.33E-5,0
ONEWEB-0028,2020-008K,2026-06-06T16:20:14.894880,13.10854574,.00021434,87.8899,23.1680,72.1863,287.9498,0,U,45140,999,30724,.74398049E-3,.274E-5,0
ONEWEB-0032,2020-008L,2026-06-06T14:48:18.576288,13.10371597,.00021332,87.8859,38.3746,73.4947,286.6414,0,U,45141,999,30691,-.19864445E-2,-.681E-5,0
ONEWEB-0033,2020-008M,2026-06-06T16:02:14.397216,13.10369630,.0001393,87.8837,38.3730,96.0995,264.0291,0,U,45142,999,30683,.88492865E-3,.322E-5,0
ONEWEB-0035,2020-008N,2026-06-06T16:31:07.009248,13.10371746,.00016833,87.8842,38.3623,84.9797,275.1522,0,U,45143,999,30656,-.15992783E-2,-.546E-5,0
ONEWEB-0036,2020-008P,2026-06-06T15:50:37.590720,13.09820604,.00020432,87.8853,38.3757,79.4597,280.6760,0,U,45144,999,30698,.19637952E-2,.693E-5,0
ONEWEB-0038,2020-008Q,2026-06-06T20:51:04.627584,13.11415764,.00012623,87.8911,23.1291,19.5432,340.5745,0,U,45145,999,30897,-.10719908E-3,-.25E-6,0
ONEWEB-0039,2020-008R,2026-06-06T16:07:01.322112,13.10372152,.00020715,87.8840,38.3618,67.1750,292.9596,0,U,45146,999,30678,.19192308E-3,.8E-6,0
ONEWEB-0040,2020-008S,2026-06-06T15:57:27.893952,13.10370413,.00017628,87.8839,38.3745,78.9270,281.2056,0,U,45147,999,30648,.16347927E-2,.583E-5,0
ONEWEB-0043,2020-008U,2026-06-06T15:59:51.563328,13.10370824,.00022046,87.8845,38.3611,70.2569,289.8796,0,U,45149,999,30680,.95202255E-3,.345E-5,0
ONEWEB-0044,2020-008V,2026-06-06T14:50:30.184224,13.10371569,.00018823,87.8851,38.3713,77.0293,283.1045,0,U,45150,999,30709,-.20499513E-2,-.703E-5,0
ONEWEB-0045,2020-008W,2026-06-06T20:43:33.790656,13.11415062,.00018179,87.8906,23.1135,79.8386,280.2947,0,U,45151,999,30905,.2888206E-3,.115E-5,0
ONEWEB-0047,2020-008X,2026-06-06T16:30:42.572736,13.10370856,.00015838,87.8847,38.3563,79.8035,280.3271,0,U,45152,999,30682,-.15003218E-2,-.511E-5,0
ONEWEB-0048,2020-008Y,2026-06-06T16:23:44.185056,13.10369521,.00017207,87.8836,38.3792,80.1615,279.9707,0,U,45153,999,30643,-.10216286E-2,-.344E-5,0
ONEWEB-0049,2020-008Z,2026-06-06T16:28:19.167744,13.10370494,.00022059,87.8840,38.3677,85.0427,275.0952,0,U,45154,999,30665,-.11407879E-2,-.386E-5,0
ONEWEB-0051,2020-008AA,2026-06-06T20:41:08.111616,13.11414779,.00018221,87.8897,23.1222,84.0511,276.0825,0,U,45155,999,30973,.33192236E-3,.13E-5,0
ONEWEB-0052,2020-008AB,2026-06-06T15:07:26.773536,13.10375303,.00022371,87.8847,38.3651,85.3453,274.7930,0,U,45156,999,30655,-.15523526E-2,-.529E-5,0
