[
  {
    "name": "ONEWEB-0012",
    "noradId": "44057",
    "line1": "1 44057U 19010A   26157.61360398 -.00000067  00000+0 -20951-3 0  9992",
    "line2": "2 44057  87.9105 230.8848 0002138  87.0658 273.0717 13.16594229350178"
  },
  {
    "name": "ONEWEB-0010",
    "noradId": "44058",
    "line1": "1 44058U 19010B   26157.94292155  .00000022  00000+0  23450-4 0  9991",
    "line2": "2 44058  87.9099 230.8150 0001751 104.8794 255.2531 13.16593977350261"
  },
  {
    "name": "ONEWEB-0008",
    "noradId": "44059",
    "line1": "1 44059U 19010C   26157.66427089  .00000047  00000+0  89658-4 0  9996",
    "line2": "2 44059  87.9103 230.8658 0002246 102.3422 257.7961 13.16595825350349"
  },
  {
    "name": "ONEWEB-0007",
    "noradId": "44060",
    "line1": "1 44060U 19010D   26157.99524744 -.00000068  00000+0 -21540-3 0  9990",
    "line2": "2 44060  87.9006 261.2513 0001686  94.3210 265.8113 13.15547693350037"
  },
  {
    "name": "ONEWEB-0006",
    "noradId": "44061",
    "line1": "1 44061U 19010E   26157.99919909 -.00000093  00000+0 -28114-3 0  9994",
    "line2": "2 44061  87.9018 261.2140 0001849 101.7620 258.3718 13.15548065350083"
  },
  {
    "name": "ONEWEB-0011",
    "noradId": "44062",
    "line1": "1 44062U 19010F   26158.04356890  .00000173  00000+0  42512-3 0  9991",
    "line2": "2 44062  87.9013 261.2148 0001944 106.8107 253.3237 13.15550332350080"
  },
  {
    "name": "ONEWEB-0013",
    "noradId": "45131",
    "line1": "1 45131U 20008A   26158.00742737  .00000812  00000+0  23192-2 0  9995",
    "line2": "2 45131  87.8526  54.8786 0002648  62.7812 297.3585 13.09457466304737"
  },
  {
    "name": "ONEWEB-0017",
    "noradId": "45132",
    "line1": "1 45132U 20008B   26157.61508265 -.00000544  00000+0 -15937-2 0  9990",
    "line2": "2 45132  87.8848  38.3728 0001548  83.1381 276.9923 13.10371924306562"
  },
  {
    "name": "ONEWEB-0020",
    "noradId": "45133",
    "line1": "1 45133U 20008C   26157.96702076  .00000537  00000+0  15019-2 0  9996",
    "line2": "2 45133  87.8840  38.3029 0001754  83.7147 276.4180 13.10371058307002"
  },
  {
    "name": "ONEWEB-0021",
    "noradId": "45134",
    "line1": "1 45134U 20008D   26157.67651574 -.00000027  00000+0 -11327-3 0  9996",
    "line2": "2 45134  87.8840  38.3767 0001770  79.3623 280.7704 13.10369670307276"
  },
  {
    "name": "ONEWEB-0023",
    "noradId": "45136",
    "line1": "1 45136U 20008F   26157.68729752 -.00000600  00000+0 -17557-2 0  9990",
    "line2": "2 45136  87.8843  38.3552 0001883  78.1928 281.9411 13.10370021306700"
  },
  {
    "name": "ONEWEB-0024",
    "noradId": "45137",
    "line1": "1 45137U 20008G   26157.96549625  .00000722  00000+0  20325-2 0  9991",
    "line2": "2 45137  87.8855  38.2927 0001818  81.4584 278.6749 13.10371334306909"
  },
  {
    "name": "ONEWEB-0025",
    "noradId": "45138",
    "line1": "1 45138U 20008H   26157.96522062  .00000665  00000+0  18684-2 0  9999",
    "line2": "2 45138  87.8854  38.2820 0002104  94.6570 265.4798 13.10371629307233"
  },
  {
    "name": "ONEWEB-0026",
    "noradId": "45139",
    "line1": "1 45139U 20008J   26157.85849573  .00000330  00000+0  89657-3 0  9995",
    "line2": "2 45139  87.8896  23.1243 0001725  88.5133 271.6193 13.11416397309757"
  },
  {
    "name": "ONEWEB-0028",
    "noradId": "45140",
    "line1": "1 45140U 20008K   26157.68072795  .00000274  00000+0  74398-3 0  9995",
    "line2": "2 45140  87.8899  23.1680 0002143  72.1863 287.9498 13.10854574307243"
  },
  {
    "name": "ONEWEB-0032",
    "noradId": "45141",
    "line1": "1 45141U 20008L   26157.61688167 -.00000681  00000+0 -19864-2 0  9995",
    "line2": "2 45141  87.8859  38.3746 0002133  73.4947 286.6414 13.10371597306913"
  },
  {
    "name": "ONEWEB-0033",
    "noradId": "45142",
    "line1": "1 45142U 20008M   26157.66822219  .00000322  00000+0  88493-3 0  9994",
    "line2": "2 45142  87.8837  38.3730 0001393  96.0995 264.0291 13.10369630306833"
  },
  {
    "name": "ONEWEB-0035",
    "noradId": "45143",
    "line1": "1 45143U 20008N   26157.68827557 -.00000546  00000+0 -15993-2 0  9991",
    "line2": "2 45143  87.8842  38.3623 0001683  84.9797 275.1522 13.10371746306560"
  },
  {
    "name": "ONEWEB-0036",
    "noradId": "45144",
    "line1": "1 45144U 20008P   26157.66015730  .00000693  00000+0  19638-2 0  9993",
    "line2": "2 45144  87.8853  38.3757 0002043  79.4597 280.6760 13.09820604306980"
  },
  {
    "name": "ONEWEB-0038",
    "noradId": "45145",
    "line1": "1 45145U 20008Q   26157.86880356 -.00000025  00000+0 -10720-3 0  9995",
    "line2": "2 45145  87.8911  23.1291 0001262  19.5432 340.5745 13.11415764308976"
  },
  {
    "name": "ONEWEB-0039",
    "noradId": "45146",
    "line1": "1 45146U 20008R   26157.67154308  .00000080  00000+0  19192-3 0  9997",
    "line2": "2 45146  87.8840  38.3618 0002071  67.1750 292.9596 13.10372152306783"
  },
  {
    "name": "ONEWEB-0040",
    "noradId": "45147",
    "line1": "1 45147U 20008S   26157.66490618  .00000583  00000+0  16348-2 0  9991",
    "line2": "2 45147  87.8839  38.3745 0001762  78.9270 281.2056 13.10370413306483"
  },
  {
    "name": "ONEWEB-0043",
    "noradId": "45149",
    "line1": "1 45149U 20008U   26157.66656902  .00000345  00000+0  95202-3 0  9996",
    "line2": "2 45149  87.8845  38.3611 0002204  70.2569 289.8796 13.10370824306809"
  },
  {
    "name": "ONEWEB-0044",
    "noradId": "45150",
    "line1": "1 45150U 20008V   26157.61840491 -.00000703  00000+0 -20500-2 0  9999",
    "line2": "2 45150  87.8851  38.3713 0001882  77.0293 283.1045 13.10371569307094"
  },
  {
    "name": "ONEWEB-0045",
    "noradId": "45151",
    "line1": "1 45151U 20008W   26157.86358554  .00000115  00000+0  28882-3 0  9998",
    "line2": "2 45151  87.8906  23.1135 0001817  79.8386 280.2947 13.11415062309052"
  },
  {
    "name": "ONEWEB-0047",
    "noradId": "45152",
    "line1": "1 45152U 20008X   26157.68799274 -.00000511  00000+0 -15003-2 0  9999",
    "line2": "2 45152  87.8847  38.3563 0001583  79.8035 280.3271 13.10370856306824"
  },
  {
    "name": "ONEWEB-0048",
    "noradId": "45153",
    "line1": "1 45153U 20008Y   26157.68315029 -.00000344  00000+0 -10216-2 0  9997",
    "line2": "2 45153  87.8836  38.3792 0001720  80.1615 279.9707 13.10369521306431"
  },
  {
    "name": "ONEWEB-0049",
    "noradId": "45154",
    "line1": "1 45154U 20008Z   26157.68633296 -.00000386  00000+0 -11408-2 0  9997",
    "line2": "2 45154  87.8840  38.3677 0002205  85.0427 275.0952 13.10370494306657"
  },
  {
    "name": "ONEWEB-0051",
    "noradId": "45155",
    "line1": "1 45155U 20008AA  26157.86189944  .00000130  00000+0  33192-3 0  9994",
    "line2": "2 45155  87.8897  23.1222 0001822  84.0511 276.0825 13.11414779309733"
  },
  {
    "name": "ONEWEB-0052",
    "noradId": "45156",
    "line1": "1 45156U 20008AB  26157.63017099 -.00000529  00000+0 -15524-2 0  9993",
    "line2": "2 45156  87.8847  38.3651 0002237  85.3453 274.7930 13.10375303306550"
  }
]